[{"OBJECT_NAME":"OBJECT D","OBJECT_ID":"2024-174D","EPOCH":"2026-03-10T00:15:10.483200","MEAN_MOTION":15.28039787,"ECCENTRICITY":0.00110644,"INCLINATION":97.4441,"RA_OF_ASC_NODE":80.4677,"ARG_OF_PERICENTER":212.9968,"MEAN_ANOMALY":147.0582,"EPHEMERIS_TYPE":0,"CLASSIFICATION_TYPE":"U","NORAD_CAT_ID":61241,"ELEMENT_SET_NO":999,"REV_AT_EPOCH":8076,"BSTAR":0.00036340099,"MEAN_MOTION_DOT":9.884e-5,"MEAN_MOTION_DDOT":0},{"OBJECT_NAME":"STARLINK-34099","OBJECT_ID":"2025-099H","EPOCH":"2026-03-09T07:16:23.100096","MEAN_MOTION":15.27642428,"ECCENTRICITY":0.00026737,"INCLINATION":43.0018,"RA_OF_ASC_NODE":178.7135,"ARG_OF_PERICENTER":282.211,"MEAN_ANOMALY":77.8442,"EPHEMERIS_TYPE":0,"CLASSIFICATION_TYPE":"U","NORAD_CAT_ID":63959,"ELEMENT_SET_NO":999,"REV_AT_EPOCH":4727,"BSTAR":0.0012723281,"MEAN_MOTION_DOT":0.00034984,"MEAN_MOTION_DDOT":0}]
